{"type": "FeatureCollection", "features": [ {"type": "Feature", "properties": {"norad_id": 31735, "name": "FENGYUN 1C DEB", "group": "fengyun-1c-debris", "lat": 66.6746210113916, "lon": -67.21598392139379, "alt_km": 784.2405023353213, "timestamp": "2025-12-14T22:38:41.041848+00:00", "meta": {"OBJECT_NAME": "FENGYUN 1C DEB", "OBJECT_ID": "1999-025CEJ", "EPOCH": "2025-12-14T02:08:55.030848", "MEAN_MOTION": 14.42548798, "ECCENTRICITY": 0.0058844, "INCLINATION": 98.5797, "RA_OF_ASC_NODE": 91.4301, "ARG_OF_PERICENTER": 280.2364, "MEAN_ANOMALY": 79.2193, "EPHEMERIS_TYPE": 0, "CLASSIFICATION_TYPE": "U", "NORAD_CAT_ID": 31735, "ELEMENT_SET_NO": 999, "REV_AT_EPOCH": 96684, "BSTAR": 0.00052160704, "MEAN_MOTION_DOT": 1.72e-05, "MEAN_MOTION_DDOT": 0}, "tle": {"line1": "1 31735U 99025CEJ 25348.08952582  .00001720  00000+0  52161-3 0  9992", "line2": "2 31735  98.5797  91.4301 0058844 280.2364  79.2193 14.42548798966844"}}, "geometry": {"type": "Point", "coordinates": [-67.21598392139379, 66.6746210113916]}}, {"type": "Feature", "properties": {"norad_id": 31736, "name": "FENGYUN 1C DEB", "group": "fengyun-1c-debris", "lat": -79.19260817650245, "lon": 117.65562910245289, "alt_km": 845.4243258123352, "timestamp": "2025-12-14T22:38:41.041862+00:00", "meta": {"OBJECT_NAME": "FENGYUN 1C DEB", "OBJECT_ID": "1999-025CEK", "EPOCH": "2025-12-14T06:07:10.914816", "MEAN_MOTION": 14.14184758, "ECCENTRICITY": 0.00110969, "INCLINATION": 98.6782, "RA_OF_ASC_NODE": 350.1239, "ARG_OF_PERICENTER": 236.0492, "MEAN_ANOMALY": 123.9627, "EPHEMERIS_TYPE": 0, "CLASSIFICATION_TYPE": "U", "NORAD_CAT_ID": 31736, "ELEMENT_SET_NO": 999, "REV_AT_EPOCH": 64086, "BSTAR": 0.00021071895, "MEAN_MOTION_DOT": 3.59e-06, "MEAN_MOTION_DDOT": 0}, "tle": {"line1": "1 31736U 99025CEK 25348.25498744  .00000359  00000+0  21072-3 0  9991", "line2": "2 31736  98.6782 350.1239 0011096 236.0492 123.9627 14.14184758640865"}}, "geometry": {"type": "Point", "coordinates": [117.65562910245289, -79.19260817650245]}}, {"type": "Feature", "properties": {"norad_id": 31737, "name": "FENGYUN 1C DEB", "group": "fengyun-1c-debris", "lat": -72.7399284142072, "lon": 175.77886947785382, "alt_km": 713.8499970320645, "timestamp": "2025-12-14T22:38:41.041872+00:00", "meta": {"OBJECT_NAME": "FENGYUN 1C DEB", "OBJECT_ID": "1999-025CEL", "EPOCH": "2025-12-14T08:28:30.449280", "MEAN_MOTION": 14.68759625, "ECCENTRICITY": 0.01486057, "INCLINATION": 97.9178, "RA_OF_ASC_NODE": 21.8175, "ARG_OF_PERICENTER": 10.6155, "MEAN_ANOMALY": 5.6402, "EPHEMERIS_TYPE": 0, "CLASSIFICATION_TYPE": "U", "NORAD_CAT_ID": 31737, "ELEMENT_SET_NO": 999, "REV_AT_EPOCH": 98223, "BSTAR": 0.00068113481, "MEAN_MOTION_DOT": 4.647e-05, "MEAN_MOTION_DDOT": 0}, "tle": {"line1": "1 31737U 99025CEL 25348.35313020  .00004647  00000+0  68113-3 0  9997", "line2": "2 31737  97.9178  21.8175 0148605  10.6155   5.6402 14.68759625982234"}}, "geometry": {"type": "Point", "coordinates": [175.77886947785382, -72.7399284142072]}}, {"type": "Feature", "properties": {"norad_id": 31738, "name": "FENGYUN 1C DEB", "group": "fengyun-1c-debris", "lat": -17.92177314081948, "lon": 59.243118289875085, "alt_km": 1030.7515017719643, "timestamp": "2025-12-14T22:38:41.041882+00:00", "meta": {"OBJECT_NAME": "FENGYUN 1C DEB", "OBJECT_ID": "1999-025CEM", "EPOCH": "2025-12-11T23:39:03.757824", "MEAN_MOTION": 13.85046302, "ECCENTRICITY": 0.0307554, "INCLINATION": 99.3602, "RA_OF_ASC_NODE": 53.2298, "ARG_OF_PERICENTER": 102.2478, "MEAN_ANOMALY": 261.3293, "EPHEMERIS_TYPE": 0, "CLASSIFICATION_TYPE": "U", "NORAD_CAT_ID": 31738, "ELEMENT_SET_NO": 999, "REV_AT_EPOCH": 62247, "BSTAR": 0.0021693, "MEAN_MOTION_DOT": 3.509e-05, "MEAN_MOTION_DDOT": 0}, "tle": {"line1": "1 31738U 99025CEM 25345.98546016  .00003509  00000+0  21693-2 0  9994", "line2": "2 31738  99.3602  53.2298 0307554 102.2478 261.3293 13.85046302622479"}}, "geometry": {"type": "Point", "coordinates": [59.243118289875085, -17.92177314081948]}}, {"type": "Feature", "properties": {"norad_id": 31739, "name": "FENGYUN 1C DEB", "group": "fengyun-1c-debris", "lat": 4.193409862775887, "lon": -135.10562963412315, "alt_km": 851.2550929573417, "timestamp": "2025-12-14T22:38:41.041892+00:00", "meta": {"OBJECT_NAME": "FENGYUN 1C DEB", "OBJECT_ID": "1999-025CEN", "EPOCH": "2025-12-11T09:13:55.687584", "MEAN_MOTION": 14.19216855, "ECCENTRICITY": 0.01284254, "INCLINATION": 98.7479, "RA_OF_ASC_NODE": 40.7336, "ARG_OF_PERICENTER": 82.0925, "MEAN_ANOMALY": 279.4805, "EPHEMERIS_TYPE": 0, "CLASSIFICATION_TYPE": "U", "NORAD_CAT_ID": 31739, "ELEMENT_SET_NO": 999, "REV_AT_EPOCH": 95467, "BSTAR": 0.00014649864, "MEAN_MOTION_DOT": 2.91e-06, "MEAN_MOTION_DDOT": 0}, "tle": {"line1": "1 31739U 99025CEN 25345.38467231  .00000291  00000+0  14650-3 0  9991", "line2": "2 31739  98.7479  40.7336 0128425  82.0925 279.4805 14.19216855954678"}}, "geometry": {"type": "Point", "coordinates": [-135.10562963412315, 4.193409862775887]}}, {"type": "Feature", "properties": {"norad_id": 31740, "name": "FENGYUN 1C DEB", "group": "fengyun-1c-debris", "lat": -48.25527462170632, "lon": 171.807128119177, "alt_km": 764.2995652695527, "timestamp": "2025-12-14T22:38:41.041902+00:00", "meta": {"OBJECT_NAME": "FENGYUN 1C DEB", "OBJECT_ID": "1999-025CEP", "EPOCH": "2025-12-12T17:41:43.521792", "MEAN_MOTION": 14.42165009, "ECCENTRICITY": 0.00243157, "INCLINATION": 99.8222, "RA_OF_ASC_NODE": 158.077, "ARG_OF_PERICENTER": 68.5462, "MEAN_ANOMALY": 314.5737, "EPHEMERIS_TYPE": 0, "CLASSIFICATION_TYPE": "U", "NORAD_CAT_ID": 31740, "ELEMENT_SET_NO": 999, "REV_AT_EPOCH": 65075, "BSTAR": 0.0019993932, "MEAN_MOTION_DOT": 6.555e-05, "MEAN_MOTION_DDOT": 0}, "tle": {"line1": "1 31740U 99025CEP 25346.73730928  .00006555  00000+0  19994-2 0  9993", "line2": "2 31740  99.8222 158.0770 0024315  68.5462 314.5737 14.42165009650758"}}, "geometry": {"type": "Point", "coordinates": [171.807128119177, -48.25527462170632]}}, {"type": "Feature", "properties": {"norad_id": 31742, "name": "FENGYUN 1C DEB", "group": "fengyun-1c-debris", "lat": 34.849480116748325, "lon": -157.43617231702987, "alt_km": 739.9055566618072, "timestamp": "2025-12-14T22:38:41.041912+00:00", "meta": {"OBJECT_NAME": "FENGYUN 1C DEB", "OBJECT_ID": "1999-025CER", "EPOCH": "2025-12-12T02:06:04.814208", "MEAN_MOTION": 14.3979189, "ECCENTRICITY": 0.00765581, "INCLINATION": 98.9194, "RA_OF_ASC_NODE": 205.8694, "ARG_OF_PERICENTER": 331.4333, "MEAN_ANOMALY": 28.2668, "EPHEMERIS_TYPE": 0, "CLASSIFICATION_TYPE": "U", "NORAD_CAT_ID": 31742, "ELEMENT_SET_NO": 999, "REV_AT_EPOCH": 96640, "BSTAR": 0.0011200534, "MEAN_MOTION_DOT": 3.588e-05, "MEAN_MOTION_DDOT": 0}, "tle": {"line1": "1 31742U 99025CER 25346.08755572  .00003588  00000+0  11201-2 0  9991", "line2": "2 31742  98.9194 205.8694 0076558 331.4333  28.2668 14.39791890966402"}}, "geometry": {"type": "Point", "coordinates": [-157.43617231702987, 34.849480116748325]}}, {"type": "Feature", "properties": {"norad_id": 31743, "name": "FENGYUN 1C DEB", "group": "fengyun-1c-debris", "lat": 48.986844059396766, "lon": -93.69351555966733, "alt_km": 808.3376616906035, "timestamp": "2025-12-14T22:38:41.041924+00:00", "meta": {"OBJECT_NAME": "FENGYUN 1C DEB", "OBJECT_ID": "1999-025CES", "EPOCH": "2025-12-13T06:51:50.109696", "MEAN_MOTION": 14.31305907, "ECCENTRICITY": 0.00373412, "INCLINATION": 99.1413, "RA_OF_ASC_NODE": 275.2327, "ARG_OF_PERICENTER": 217.3028, "MEAN_ANOMALY": 296.6917, "EPHEMERIS_TYPE": 0, "CLASSIFICATION_TYPE": "U", "NORAD_CAT_ID": 31743, "ELEMENT_SET_NO": 999, "REV_AT_EPOCH": 95648, "BSTAR": 0.0026530852, "MEAN_MOTION_DOT": 7.034e-05, "MEAN_MOTION_DDOT": 0}, "tle": {"line1": "1 31743U 99025CES 25347.28599664  .00007034  00000+0  26531-2 0  9995", "line2": "2 31743  99.1413 275.2327 0037341 217.3028 296.6917 14.31305907956481"}}, "geometry": {"type": "Point", "coordinates": [-93.69351555966733, 48.986844059396766]}}, {"type": "Feature", "properties": {"norad_id": 31744, "name": "FENGYUN 1C DEB", "group": "fengyun-1c-debris", "lat": -64.2405044831048, "lon": -99.84400815468985, "alt_km": 1043.9000431009008, "timestamp": "2025-12-14T22:38:41.041936+00:00", "meta": {"OBJECT_NAME": "FENGYUN 1C DEB", "OBJECT_ID": "1999-025CET", "EPOCH": "2025-12-14T02:50:38.121792", "MEAN_MOTION": 14.16584593, "ECCENTRICITY": 0.0315165, "INCLINATION": 99.3051, "RA_OF_ASC_NODE": 99.1547, "ARG_OF_PERICENTER": 40.4872, "MEAN_ANOMALY": 321.9295, "EPHEMERIS_TYPE": 0, "CLASSIFICATION_TYPE": "U", "NORAD_CAT_ID": 31744, "ELEMENT_SET_NO": 999, "REV_AT_EPOCH": 94634, "BSTAR": 0.0018316306, "MEAN_MOTION_DOT": 5.895e-05, "MEAN_MOTION_DDOT": 0}, "tle": {"line1": "1 31744U 99025CET 25348.11849678  .00005895  00000+0  18316-2 0  9997", "line2": "2 31744  99.3051  99.1547 0315165  40.4872 321.9295 14.16584593946342"}}, "geometry": {"type": "Point", "coordinates": [-99.84400815468985, -64.2405044831048]}}, {"type": "Feature", "properties": {"norad_id": 31746, "name": "FENGYUN 1C DEB", "group": "fengyun-1c-debris", "lat": 74.33517748781779, "lon": 79.04965090374378, "alt_km": 640.7608572053632, "timestamp": "2025-12-14T22:38:41.041949+00:00", "meta": {"OBJECT_NAME": "FENGYUN 1C DEB", "OBJECT_ID": "1999-025CEV", "EPOCH": "2025-12-12T06:52:47.387712", "MEAN_MOTION": 14.76733857, "ECCENTRICITY": 0.00233649, "INCLINATION": 98.5885, "RA_OF_ASC_NODE": 108.8357, "ARG_OF_PERICENTER": 208.057, "MEAN_ANOMALY": 151.938, "EPHEMERIS_TYPE": 0, "CLASSIFICATION_TYPE": "U", "NORAD_CAT_ID": 31746, "ELEMENT_SET_NO": 999, "REV_AT_EPOCH": 97021, "BSTAR": 0.0053337592, "MEAN_MOTION_DOT": 0.00037665, "MEAN_MOTION_DDOT": 0}, "tle": {"line1": "1 31746U 99025CEV 25346.28665958  .00037665  00000+0  53338-2 0  9995", "line2": "2 31746  98.5885 108.8357 0023364 208.0570 151.9380 14.76733857970215"}}, "geometry": {"type": "Point", "coordinates": [79.04965090374378, 74.33517748781779]}}]}